EXPRESS AMU-3           
1 50002U 21123B   22164.37827251 -.00000310  00000+0  00000+0 0  9999
2 50002   0.0376 208.8592 0000442 269.2438  22.7465  1.00268678  1828
TIANLIAN 2-02           
1 50005U 21124A   22164.59309071 -.00000001  00000+0  00000+0 0  9999
2 50005   2.5537 282.6944 0003239 142.6174 221.0743  1.00270581  1937
TURKSAT 5B              
1 50212U 21126A   22164.49561037  .00000157  00000+0  00000+0 0  9993
2 50212   0.0610 336.8678 0002667  31.6257 113.6709  1.00271640  1611
SHIYAN 12 01 (SY-12 01) 
1 50321U 21129A   22164.67795958  .00000161  00000+0  00000+0 0  9993
2 50321   0.1538 232.2379 0003251 284.9009  30.0085  1.00215561  1829
SHIYAN 12 02 (SY-12 02) 
1 50322U 21129B   22164.69201160 -.00000306  00000+0  00000+0 0  9995
2 50322   0.1543 232.3444 0001273 218.9331 160.1638  1.00343890  1823
TJS-9                   
1 50574U 21135A   22164.59007639 -.00000289  00000+0  00000+0 0  9995
2 50574   0.0505 264.9681 0004545 219.4490 127.0726  1.00271492  1761
USA 324                 
1 51280U 22006A   22151.64930556 -.00000107  00000+0  00000+0 0  9992
2 51280   0.0281 110.3096 0000382 274.9213  76.5017  1.00545558  1291
USA 325                 
1 51281U 22006B   22151.64930556 -.00000100  00000+0  00000+0 0  9996
2 51281   0.0258 108.6705 0000414 127.0426 228.4006  1.00486307  1295
GOES 18                 
1 51850U 22021A   22164.46000990  .00000107  00000+0  00000+0 0  9995
2 51850   0.0570 125.1317 0002328  96.1555  69.2644  1.00269448  1106
CHINASAT 6D             
1 52255U 22038A   22164.58393280 -.00000343  00000+0  00000+0 0  9996
2 52255   0.0422  81.1861 0001462 101.0429  54.9339  1.00269545   751
